{"type": "FeatureCollection", "features": [ {"type": "Feature", "properties": {"norad_id": 46443, "name": "FENGYUN 1C DEB", "group": "fengyun-1c-debris", "lat": -0.4566262209696866, "lon": 50.86844368833692, "alt_km": 789.8499221684942, "timestamp": "2025-12-09T23:33:24.145777+00:00", "meta": {"OBJECT_NAME": "FENGYUN 1C DEB", "OBJECT_ID": "1999-025EYY", "EPOCH": "2025-12-09T10:12:48.154176", "MEAN_MOTION": 14.10809101, "ECCENTRICITY": 0.00965626, "INCLINATION": 99.2139, "RA_OF_ASC_NODE": 50.2244, "ARG_OF_PERICENTER": 5.4692, "MEAN_ANOMALY": 52.082, "EPHEMERIS_TYPE": 0, "CLASSIFICATION_TYPE": "U", "NORAD_CAT_ID": 46443, "ELEMENT_SET_NO": 999, "REV_AT_EPOCH": 59549, "BSTAR": 0.0025253745, "MEAN_MOTION_DOT": 4.679e-05, "MEAN_MOTION_DDOT": 0}, "tle": {"line1": "1 46443U 99025EYY 25343.42555734  .00004679  00000+0  25254-2 0  9993", "line2": "2 46443  99.2139  50.2244 0096562   5.4692  52.0820 14.10809101595491"}}, "geometry": {"type": "Point", "coordinates": [50.86844368833692, -0.4566262209696866]}}, {"type": "Feature", "properties": {"norad_id": 46444, "name": "FENGYUN 1C DEB", "group": "fengyun-1c-debris", "lat": -58.70322622386841, "lon": 151.78575905369865, "alt_km": 798.2131529770495, "timestamp": "2025-12-09T23:33:24.145788+00:00", "meta": {"OBJECT_NAME": "FENGYUN 1C DEB", "OBJECT_ID": "1999-025EYZ", "EPOCH": "2025-12-08T20:05:19.430016", "MEAN_MOTION": 14.27142422, "ECCENTRICITY": 0.00842044, "INCLINATION": 98.5131, "RA_OF_ASC_NODE": 344.9349, "ARG_OF_PERICENTER": 162.2551, "MEAN_ANOMALY": 319.7368, "EPHEMERIS_TYPE": 0, "CLASSIFICATION_TYPE": "U", "NORAD_CAT_ID": 46444, "ELEMENT_SET_NO": 999, "REV_AT_EPOCH": 62526, "BSTAR": 0.00088543069, "MEAN_MOTION_DOT": 2.201e-05, "MEAN_MOTION_DDOT": 0}, "tle": {"line1": "1 46444U 99025EYZ 25342.83703044  .00002201  00000+0  88543-3 0  9997", "line2": "2 46444  98.5131 344.9349 0084204 162.2551 319.7368 14.27142422625264"}}, "geometry": {"type": "Point", "coordinates": [151.78575905369865, -58.70322622386841]}}, {"type": "Feature", "properties": {"norad_id": 46449, "name": "FENGYUN 1C DEB", "group": "fengyun-1c-debris", "lat": 65.61747513960347, "lon": -141.95159655901506, "alt_km": 963.9580559683191, "timestamp": "2025-12-09T23:33:24.145799+00:00", "meta": {"OBJECT_NAME": "FENGYUN 1C DEB", "OBJECT_ID": "1999-025EZE", "EPOCH": "2025-11-27T19:57:02.428704", "MEAN_MOTION": 14.19021773, "ECCENTRICITY": 0.02029501, "INCLINATION": 98.6463, "RA_OF_ASC_NODE": 6.5721, "ARG_OF_PERICENTER": 314.0231, "MEAN_ANOMALY": 44.4375, "EPHEMERIS_TYPE": 0, "CLASSIFICATION_TYPE": "U", "NORAD_CAT_ID": 46449, "ELEMENT_SET_NO": 999, "REV_AT_EPOCH": 57425, "BSTAR": 0.00050383916, "MEAN_MOTION_DOT": 1.244e-05, "MEAN_MOTION_DDOT": 0}, "tle": {"line1": "1 46449U 99025EZE 25331.83127811  .00001244  00000+0  50384-3 0  9990", "line2": "2 46449  98.6463   6.5721 0202950 314.0231  44.4375 14.19021773574253"}}, "geometry": {"type": "Point", "coordinates": [-141.95159655901506, 65.61747513960347]}}, {"type": "Feature", "properties": {"norad_id": 46450, "name": "FENGYUN 1C DEB", "group": "fengyun-1c-debris", "lat": 66.00343126137591, "lon": -177.67173428780978, "alt_km": 742.9056798940037, "timestamp": "2025-12-09T23:33:24.145809+00:00", "meta": {"OBJECT_NAME": "FENGYUN 1C DEB", "OBJECT_ID": "1999-025EZF", "EPOCH": "2025-12-05T08:02:04.531488", "MEAN_MOTION": 14.03487507, "ECCENTRICITY": 0.0182173, "INCLINATION": 98.079, "RA_OF_ASC_NODE": 196.8025, "ARG_OF_PERICENTER": 82.0832, "MEAN_ANOMALY": 280.097, "EPHEMERIS_TYPE": 0, "CLASSIFICATION_TYPE": "U", "NORAD_CAT_ID": 46450, "ELEMENT_SET_NO": 999, "REV_AT_EPOCH": 61015, "BSTAR": 0.0037253219, "MEAN_MOTION_DOT": 6.729e-05, "MEAN_MOTION_DDOT": 0}, "tle": {"line1": "1 46450U 99025EZF 25339.33477467  .00006729  00000+0  37253-2 0  9992", "line2": "2 46450  98.0790 196.8025 0182173  82.0832 280.0970 14.03487507610158"}}, "geometry": {"type": "Point", "coordinates": [-177.67173428780978, 66.00343126137591]}}, {"type": "Feature", "properties": {"norad_id": 46451, "name": "FENGYUN 1C DEB", "group": "fengyun-1c-debris", "lat": -51.07259739990192, "lon": 173.17970138404152, "alt_km": 732.7916604194825, "timestamp": "2025-12-09T23:33:24.145819+00:00", "meta": {"OBJECT_NAME": "FENGYUN 1C DEB", "OBJECT_ID": "1999-025EZG", "EPOCH": "2025-12-09T13:04:12.340992", "MEAN_MOTION": 14.20320421, "ECCENTRICITY": 0.01714144, "INCLINATION": 98.1515, "RA_OF_ASC_NODE": 2.9983, "ARG_OF_PERICENTER": 195.2123, "MEAN_ANOMALY": 322.4419, "EPHEMERIS_TYPE": 0, "CLASSIFICATION_TYPE": "U", "NORAD_CAT_ID": 46451, "ELEMENT_SET_NO": 999, "REV_AT_EPOCH": 56961, "BSTAR": 0.0034453438, "MEAN_MOTION_DOT": 8.515e-05, "MEAN_MOTION_DDOT": 0}, "tle": {"line1": "1 46451U 99025EZG 25343.54458728  .00008515  00000+0  34453-2 0  9994", "line2": "2 46451  98.1515   2.9983 0171414 195.2123 322.4419 14.20320421569614"}}, "geometry": {"type": "Point", "coordinates": [173.17970138404152, -51.07259739990192]}}, {"type": "Feature", "properties": {"norad_id": 46468, "name": "FENGYUN 1C DEB", "group": "fengyun-1c-debris", "lat": 64.82221689693257, "lon": 52.29284927607937, "alt_km": 835.3810772857005, "timestamp": "2025-12-09T23:33:24.145829+00:00", "meta": {"OBJECT_NAME": "FENGYUN 1C DEB", "OBJECT_ID": "1999-025EZK", "EPOCH": "2025-12-05T11:40:56.057088", "MEAN_MOTION": 14.24624846, "ECCENTRICITY": 0.00454022, "INCLINATION": 98.8836, "RA_OF_ASC_NODE": 67.1806, "ARG_OF_PERICENTER": 250.6717, "MEAN_ANOMALY": 176.0596, "EPHEMERIS_TYPE": 0, "CLASSIFICATION_TYPE": "U", "NORAD_CAT_ID": 46468, "ELEMENT_SET_NO": 999, "REV_AT_EPOCH": 73713, "BSTAR": 0.0036232179, "MEAN_MOTION_DOT": 8.473e-05, "MEAN_MOTION_DDOT": 0}, "tle": {"line1": "1 46468U 99025EZK 25339.48675992  .00008473  00000+0  36232-2 0  9994", "line2": "2 46468  98.8836  67.1806 0045402 250.6717 176.0596 14.24624846737139"}}, "geometry": {"type": "Point", "coordinates": [52.29284927607937, 64.82221689693257]}}, {"type": "Feature", "properties": {"norad_id": 46986, "name": "FENGYUN 1C DEB", "group": "fengyun-1c-debris", "lat": 21.61065822251213, "lon": 4.505283474306071, "alt_km": 804.6483109205137, "timestamp": "2025-12-09T23:33:24.145840+00:00", "meta": {"OBJECT_NAME": "FENGYUN 1C DEB", "OBJECT_ID": "1999-025EZL", "EPOCH": "2025-12-01T08:01:27.390720", "MEAN_MOTION": 14.47112781, "ECCENTRICITY": 0.01038428, "INCLINATION": 98.2357, "RA_OF_ASC_NODE": 359.3803, "ARG_OF_PERICENTER": 247.048, "MEAN_ANOMALY": 111.973, "EPHEMERIS_TYPE": 0, "CLASSIFICATION_TYPE": "U", "NORAD_CAT_ID": 46986, "ELEMENT_SET_NO": 999, "REV_AT_EPOCH": 63235, "BSTAR": 0.00048896767, "MEAN_MOTION_DOT": 1.859e-05, "MEAN_MOTION_DDOT": 0}, "tle": {"line1": "1 46986U 99025EZL 25335.33434480  .00001859  00000+0  48897-3 0  9996", "line2": "2 46986  98.2357 359.3803 0103842 247.0480 111.9730 14.47112781632350"}}, "geometry": {"type": "Point", "coordinates": [4.505283474306071, 21.61065822251213]}}, {"type": "Feature", "properties": {"norad_id": 46989, "name": "FENGYUN 1C DEB", "group": "fengyun-1c-debris", "lat": 63.841522375145814, "lon": 125.78617499195347, "alt_km": 928.0478856427326, "timestamp": "2025-12-09T23:33:24.145850+00:00", "meta": {"OBJECT_NAME": "FENGYUN 1C DEB", "OBJECT_ID": "1999-025EZP", "EPOCH": "2025-12-01T09:56:49.877952", "MEAN_MOTION": 13.7915922, "ECCENTRICITY": 0.02374727, "INCLINATION": 99.5096, "RA_OF_ASC_NODE": 137.1371, "ARG_OF_PERICENTER": 7.3744, "MEAN_ANOMALY": 21.4435, "EPHEMERIS_TYPE": 0, "CLASSIFICATION_TYPE": "U", "NORAD_CAT_ID": 46989, "ELEMENT_SET_NO": 999, "REV_AT_EPOCH": 70886, "BSTAR": 0.0040160764, "MEAN_MOTION_DOT": 5.034e-05, "MEAN_MOTION_DDOT": 0}, "tle": {"line1": "1 46989U 99025EZP 25335.41446618  .00005034  00000+0  40161-2 0  9998", "line2": "2 46989  99.5096 137.1371 0237472   7.3744  21.4435 13.79159220708866"}}, "geometry": {"type": "Point", "coordinates": [125.78617499195347, 63.841522375145814]}}, {"type": "Feature", "properties": {"norad_id": 46990, "name": "FENGYUN 1C DEB", "group": "fengyun-1c-debris", "lat": 66.22147100042753, "lon": 27.44956297459812, "alt_km": 616.0079217401471, "timestamp": "2025-12-09T23:33:24.145861+00:00", "meta": {"OBJECT_NAME": "FENGYUN 1C DEB", "OBJECT_ID": "1999-025EZQ", "EPOCH": "2025-12-06T08:10:02.409024", "MEAN_MOTION": 14.23662061, "ECCENTRICITY": 0.03583683, "INCLINATION": 98.2315, "RA_OF_ASC_NODE": 184.8522, "ARG_OF_PERICENTER": 79.2421, "MEAN_ANOMALY": 98.3113, "EPHEMERIS_TYPE": 0, "CLASSIFICATION_TYPE": "U", "NORAD_CAT_ID": 46990, "ELEMENT_SET_NO": 999, "REV_AT_EPOCH": 8438, "BSTAR": 0.0037020871, "MEAN_MOTION_DOT": 0.00016467, "MEAN_MOTION_DDOT": 0}, "tle": {"line1": "1 46990U 99025EZQ 25340.34030566  .00016467  00000+0  37021-2 0  9992", "line2": "2 46990  98.2315 184.8522 0358368  79.2421  98.3113 14.23662061 84385"}}, "geometry": {"type": "Point", "coordinates": [27.44956297459812, 66.22147100042753]}}, {"type": "Feature", "properties": {"norad_id": 46992, "name": "FENGYUN 1C DEB", "group": "fengyun-1c-debris", "lat": 41.65285164278864, "lon": -37.198307624595955, "alt_km": 918.4586779069759, "timestamp": "2025-12-09T23:33:24.145872+00:00", "meta": {"OBJECT_NAME": "FENGYUN 1C DEB", "OBJECT_ID": "1999-025EZS", "EPOCH": "2025-12-09T06:12:33.153984", "MEAN_MOTION": 14.00691719, "ECCENTRICITY": 0.0072103, "INCLINATION": 98.8975, "RA_OF_ASC_NODE": 330.1075, "ARG_OF_PERICENTER": 170.257, "MEAN_ANOMALY": 190.0013, "EPHEMERIS_TYPE": 0, "CLASSIFICATION_TYPE": "U", "NORAD_CAT_ID": 46992, "ELEMENT_SET_NO": 999, "REV_AT_EPOCH": 60908, "BSTAR": 0.0006014, "MEAN_MOTION_DOT": 8.73e-06, "MEAN_MOTION_DDOT": 0}, "tle": {"line1": "1 46992U 99025EZS 25343.25871706  .00000873  00000+0  60140-3 0  9999", "line2": "2 46992  98.8975 330.1075 0072103 170.2570 190.0013 14.00691719609087"}}, "geometry": {"type": "Point", "coordinates": [-37.198307624595955, 41.65285164278864]}}]}